OBJECT_NAME,OBJECT_ID,EPOCH,MEAN_MOTION,ECCENTRICITY,INCLINATION,RA_OF_ASC_NODE,ARG_OF_PERICENTER,MEAN_ANOMALY,EPHEMERIS_TYPE,CLASSIFICATION_TYPE,NORAD_CAT_ID,ELEMENT_SET_NO,REV_AT_EPOCH,BSTAR,MEAN_MOTION_DOT,MEAN_MOTION_DDOT
GALAXY 3C (G-3C),2002-030A,2026-06-11T14:30:24.244128,1.00271150,.0001634,3.7160,78.0500,34.4673,270.1826,0,U,27445,999,4643,0,-.138E-5,0
INTELSAT 906 (IS-906),2002-041A,2026-06-11T18:40:59.269728,1.00271853,.0004667,5.7896,72.9885,1.3969,170.1093,0,U,27513,999,8697,0,.26E-6,0
NIMIQ 2,2002-062A,2026-06-11T06:59:38.675904,1.00271730,.0005502,9.4321,56.9616,19.7685,178.6256,0,U,27632,999,4412,0,-.59E-6,0
USA 167,2003-008A,2026-06-11T11:35:58.569792,1.00273193,.0003729,10.9496,43.4583,312.9054,315.7463,0,U,27691,999,671,0,.12E-6,0
USA 169 (MILSTAR-2 4),2003-012A,2026-06-10T22:34:08.362848,1.00269686,.01008112,12.3397,29.8905,8.8910,351.1542,0,U,27711,999,3288,0,-.222E-5,0
ASIASAT 4,2003-014A,2026-06-11T13:56:41.150976,1.00271754,.0002984,4.6907,75.8166,6.6548,174.1707,0,U,27718,999,4524,0,-.208E-5,0
HELLAS-SAT 2,2003-020A,2026-06-10T23:30:37.109088,1.00271194,.00024772,7.3387,67.9570,13.7585,160.2596,0,U,27811,999,4278,0,-.71E-6,0
THURAYA-2,2003-026A,2026-06-11T15:36:10.439712,1.00271633,.0003215,8.8323,32.0034,6.9678,139.0574,0,U,27825,999,8429,0,.134E-5,0
OPTUS C1,2003-028B,2026-06-11T13:19:38.726112,1.00272822,.0005532,6.8749,69.4768,12.2266,173.8290,0,U,27831,999,5300,0,-.139E-5,0
USA 170,2003-040A,2026-06-10T22:23:31.600032,1.00277806,.00019086,10.4865,48.0055,38.2819,173.2406,0,U,27875,999,3293,0,.137E-5,0
GALAXY 13 (HORIZONS-1),2003-044A,2026-06-11T15:57:14.124384,1.00274747,.0002126,1.4057,83.9289,354.6866,270.7168,0,U,27954,999,4651,0,.149E-5,0
YAMAL 202,2003-053A,2026-06-11T12:18:43.534368,1.00273203,.0003373,6.3291,71.0071,357.0536,180.0881,0,U,28089,999,8264,0,-.66E-6,0
UFO 11 (USA 174),2003-057A,2026-06-11T18:41:57.835968,1.00271821,.0002645,8.9288,33.8567,56.8079,165.5225,0,U,28117,999,8239,0,-.96E-6,0
USA 176 (DSP 22),2004-004A,2026-06-11T09:25:13.791936,1.00406661,.0001204,12.0541,26.1115,291.4563,33.4510,0,U,28158,999,3287,0,-.285E-5,0
ABS-4 (MOBISAT-1),2004-007A,2026-06-11T04:57:21.681216,1.00272064,.0005181,6.0274,72.0798,5.4821,317.2831,0,U,28184,999,5227,0,.53E-6,0
INTELSAT 10-02,2004-022A,2026-06-11T16:39:47.543328,1.00271147,.0000243,0.0129,326.6782,212.8182,329.4806,0,U,28358,999,8050,0,.5E-7,0
ANIK F2,2004-027A,2026-06-11T14:25:39.700416,1.00271261,.0004086,3.2721,79.5174,5.2405,280.4748,0,U,28378,999,4120,0,-.35E-6,0
AMC-15,2004-041A,2026-06-11T16:10:05.391264,1.00271629,.0002158,0.0240,314.6085,135.0230,307.8667,0,U,28446,999,7924,0,-.72E-6,0
NSS-10,2005-003A,2026-06-11T05:11:56.335200,1.00270318,.00028157,6.4338,70.5249,12.8082,216.7645,0,U,28526,999,5309,0,-.238E-5,0
INMARSAT 4-F1,2005-009A,2026-06-11T12:22:50.639232,1.00271602,.0002573,5.1602,42.7431,40.6377,180.3118,0,U,28628,999,7761,0,.46E-6,0
DIRECTV 8,2005-019A,2026-06-11T16:06:05.772960,1.00270660,.0002833,0.0167,54.0538,29.3774,299.0562,0,U,28659,999,7701,0,.18E-6,0
GALAXY 28 (G-28),2005-022A,2026-06-11T16:32:18.259872,1.00271775,.000286,3.2851,79.0001,358.6263,43.3797,0,U,28702,999,5192,0,-.185E-5,0
THAICOM 4,2005-028A,2026-06-11T17:14:09.870720,1.00270267,.000171,0.2307,85.9622,349.2429,202.9013,0,U,28786,999,5219,0,-.346E-5,0
ANIK F1R,2005-036A,2026-06-11T16:09:27.949824,1.00272241,.0004138,4.2979,76.6466,8.6067,309.8651,0,U,28868,999,4639,0,-.61E-6,0
SYRACUSE 3A,2005-041B,2026-06-11T11:53:51.707904,1.00272549,.0003069,4.6289,75.9076,343.8426,65.1919,0,U,28885,999,7569,0,.143E-5,0
INMARSAT 4-F2,2005-044A,2026-06-11T13:55:33.758976,1.00267655,.0002835,5.0869,43.7027,43.0602,165.5413,0,U,28899,999,7546,0,-.248E-5,0
METEOSAT-9 (MSG-2),2005-049B,2026-06-10T20:21:02.721024,1.00269523,.0001608,9.3464,54.2281,348.0762,207.8226,0,U,28912,999,693,0,.136E-5,0
EUTELSAT 174A,2005-052A,2026-06-11T12:55:38.680896,1.00270050,.00062,4.2045,76.5949,4.1315,187.0364,0,U,28924,999,5227,0,.23E-6,0
ECHOSTAR 10,2006-003A,2026-06-11T16:08:35.535264,1.00270505,.0001607,0.0190,330.5541,83.0542,338.3708,0,U,28935,999,7440,0,-.39E-6,0
SPAINSAT,2006-007A,2026-06-11T08:42:04.919616,1.00271302,.0004744,0.5473,86.6305,352.3155,281.1182,0,U,28945,999,7415,0,-.2E-5,0
JCSAT-5A,2006-010A,2026-06-11T17:17:39.535872,1.00271782,.00019,1.0945,84.2750,11.5742,195.6722,0,U,29045,999,7371,0,-.312E-5,0
ASTRA 1KR,2006-012A,2026-06-11T18:46:54.928416,1.00269236,.0003358,0.4591,83.1980,352.4813,125.1648,0,U,29055,999,4564,0,.135E-5,0
