GALAXY 3C (G-3C)        
1 27445U 02030A   26162.60444727 -.00000138  00000+0  00000+0 0  9999
2 27445   3.7160  78.0500 0001634  34.4673 270.1826  1.00271150 46432
INTELSAT 906 (IS-906)   
1 27513U 02041A   26162.77846377  .00000026  00000+0  00000+0 0  9997
2 27513   5.7896  72.9885 0004667   1.3969 170.1093  1.00271853 86973
NIMIQ 2                 
1 27632U 02062A   26162.29141986 -.00000059  00000+0  00000+0 0  9990
2 27632   9.4321  56.9616 0005502  19.7685 178.6256  1.00271730 44129
USA 167                 
1 27691U 03008A   26162.48331678  .00000012  00000+0  00000+0 0  9994
2 27691  10.9496  43.4583 0003729 312.9054 315.7463  1.00273193  6717
USA 169 (MILSTAR-2 4)   
1 27711U 03012A   26161.94037457 -.00000222  00000+0  00000+0 0  9994
2 27711  12.3397  29.8905 0100811   8.8910 351.1542  1.00269686 32885
ASIASAT 4               
1 27718U 03014A   26162.58103184 -.00000208  00000+0  00000+0 0  9999
2 27718   4.6907  75.8166 0002984   6.6548 174.1707  1.00271754 45247
HELLAS-SAT 2            
1 27811U 03020A   26161.97959617 -.00000071  00000+0  00000+0 0  9990
2 27811   7.3387  67.9570 0002477  13.7585 160.2596  1.00271194 42787
THURAYA-2               
1 27825U 03026A   26162.65012083  .00000134  00000+0  00000+0 0  9993
2 27825   8.8323  32.0034 0003215   6.9678 139.0574  1.00271633 84294
OPTUS C1                
1 27831U 03028B   26162.55530933 -.00000139  00000+0  00000+0 0  9996
2 27831   6.8749  69.4768 0005532  12.2266 173.8290  1.00272822 53003
USA 170                 
1 27875U 03040A   26161.93300463  .00000137  00000+0  00000+0 0  9999
2 27875  10.4865  48.0055 0001908  38.2819 173.2406  1.00277806 32937
GALAXY 13 (HORIZONS-1)  
1 27954U 03044A   26162.66474681  .00000149  00000+0  00000+0 0  9999
2 27954   1.4057  83.9289 0002126 354.6866 270.7168  1.00274747 46513
YAMAL 202               
1 28089U 03053A   26162.51300387 -.00000066  00000+0  00000+0 0  9993
2 28089   6.3291  71.0071 0003373 357.0536 180.0881  1.00273203 82645
UFO 11 (USA 174)        
1 28117U 03057A   26162.77914162 -.00000096  00000+0  00000+0 0  9992
2 28117   8.9288  33.8567 0002645  56.8079 165.5225  1.00271821 82390
USA 176 (DSP 22)        
1 28158U 04004A   26162.39252074 -.00000285  00000+0  00000+0 0  9995
2 28158  12.0541  26.1115 0001204 291.4563  33.4510  1.00406661 32872
ABS-4 (MOBISAT-1)       
1 28184U 04007A   26162.20650094  .00000053  00000+0  00000+0 0  9993
2 28184   6.0274  72.0798 0005181   5.4821 317.2831  1.00272064 52275
INTELSAT 10-02          
1 28358U 04022A   26162.69430027  .00000005  00000+0  00000+0 0  9995
2 28358   0.0129 326.6782 0000243 212.8182 329.4806  1.00271147 80505
ANIK F2                 
1 28378U 04027A   26162.60115394 -.00000035  00000+0  00000+0 0  9994
2 28378   3.2721  79.5174 0004086   5.2405 280.4748  1.00271261 41202
AMC-15                  
1 28446U 04041A   26162.67367351 -.00000072  00000+0  00000+0 0  9996
2 28446   0.0240 314.6085 0002158 135.0230 307.8667  1.00271629 79246
NSS-10                  
1 28526U 05003A   26162.21662425 -.00000238  00000+0  00000+0 0  9998
2 28526   6.4338  70.5249 0002815  12.8082 216.7645  1.00270318 53093
INMARSAT 4-F1           
1 28628U 05009A   26162.51586388  .00000046  00000+0  00000+0 0  9999
2 28628   5.1602  42.7431 0002573  40.6377 180.3118  1.00271602 77619
DIRECTV 8               
1 28659U 05019A   26162.67090015  .00000018  00000+0  00000+0 0  9997
2 28659   0.0167  54.0538 0002833  29.3774 299.0562  1.00270660 77019
GALAXY 28 (G-28)        
1 28702U 05022A   26162.68910023 -.00000185  00000+0  00000+0 0  9997
2 28702   3.2851  79.0001 0002860 358.6263  43.3797  1.00271775 51926
THAICOM 4               
1 28786U 05028A   26162.71816980 -.00000346  00000+0  00000+0 0  9995
2 28786   0.2307  85.9622 0001710 349.2429 202.9013  1.00270267 52198
ANIK F1R                
1 28868U 05036A   26162.67324016 -.00000061  00000+0  00000+0 0  9998
2 28868   4.2979  76.6466 0004138   8.6067 309.8651  1.00272241 46396
SYRACUSE 3A             
1 28885U 05041B   26162.49573736  .00000143  00000+0  00000+0 0  9998
2 28885   4.6289  75.9076 0003069 343.8426  65.1919  1.00272549 75692
INMARSAT 4-F2           
1 28899U 05044A   26162.58025184 -.00000248  00000+0  00000+0 0  9992
2 28899   5.0869  43.7027 0002835  43.0602 165.5413  1.00267655 75461
METEOSAT-9 (MSG-2)      
1 28912U 05049B   26161.84794816  .00000136  00000+0  00000+0 0  9991
2 28912   9.3464  54.2281 0001608 348.0762 207.8226  1.00269523  6930
EUTELSAT 174A           
1 28924U 05052A   26162.53864214  .00000023  00000+0  00000+0 0  9990
2 28924   4.2045  76.5949 0006200   4.1315 187.0364  1.00270050 52274
ECHOSTAR 10             
1 28935U 06003A   26162.67263351 -.00000039  00000+0  00000+0 0  9997
2 28935   0.0190 330.5541 0001607  83.0542 338.3708  1.00270505 74403
SPAINSAT                
1 28945U 06007A   26162.36255694 -.00000200  00000+0  00000+0 0  9999
2 28945   0.5473  86.6305 0004744 352.3155 281.1182  1.00271302 74156
JCSAT-5A                
1 29045U 06010A   26162.72059648 -.00000312  00000+0  00000+0 0  9990
2 29045   1.0945  84.2750 0001900  11.5742 195.6722  1.00271782 73715
ASTRA 1KR               
1 29055U 06012A   26162.78258019  .00000135  00000+0  00000+0 0  9994
2 29055   0.4591  83.1980 0003358 352.4813 125.1648  1.00269236 45641
